OBJECT_NAME,OBJECT_ID,EPOCH,MEAN_MOTION,ECCENTRICITY,INCLINATION,RA_OF_ASC_NODE,ARG_OF_PERICENTER,MEAN_ANOMALY,EPHEMERIS_TYPE,CLASSIFICATION_TYPE,NORAD_CAT_ID,ELEMENT_SET_NO,REV_AT_EPOCH,BSTAR,MEAN_MOTION_DOT,MEAN_MOTION_DDOT
STARLINK-37531,2026-110N,2026-06-08T20:00:03.000384,15.62822955,.00014,97.2847,356.2222,88.7822,114.0774,0,U,69136,999,431,-.80021E-2,-.663761E-2,0
STARLINK-37662,2026-110P,2026-06-08T20:00:03.000384,15.56867412,.0001361,97.2848,356.1899,78.5748,41.7780,0,U,69137,999,431,-.38548E-1,-.241648E-1,0
STARLINK-37658,2026-110Q,2026-06-08T20:00:03.000384,15.49070697,.0000991,97.2853,356.1196,117.6418,205.4382,0,U,69138,999,431,.15495E-2,.84746E-3,0
STARLINK-37659,2026-110R,2026-06-08T20:00:03.000384,15.49137453,.0001242,97.2854,356.1012,92.9491,187.1845,0,U,69139,999,431,.16641E-2,.91307E-3,0
STARLINK-37653,2026-110S,2026-06-08T20:00:03.000384,15.49141386,.0001088,97.2857,356.0965,101.4628,164.9258,0,U,69140,999,431,.15683E-2,.85997E-3,0
STARLINK-37654,2026-110T,2026-06-08T20:00:03.000384,15.55816078,.0001633,97.2849,356.1936,61.8423,71.9784,0,U,69141,999,431,-.34909E-1,-.2139424E-1,0
STARLINK-37655,2026-110U,2026-06-08T20:00:03.000384,15.61540119,.0001187,97.2846,356.2169,85.5068,101.5885,0,U,69142,999,431,-.88337E-2,-.694427E-2,0
STARLINK-37636,2026-110V,2026-06-08T20:00:03.000384,15.68528952,.0001548,97.2848,356.2636,107.1042,197.0223,0,U,69143,999,431,-.25827E-1,-.2541433E-1,0
STARLINK-37638,2026-110W,2026-06-08T20:00:03.000384,15.69033182,.0001501,97.2845,356.2674,102.5035,210.3220,0,U,69144,999,431,-.25705E-1,-.2577224E-1,0
STARLINK-37657,2026-110X,2026-06-08T20:00:03.000384,15.54744562,.0001813,97.2850,356.1967,83.6144,53.1304,0,U,69145,999,436,-.42216E-1,-.2442289E-1,0
STARLINK-37639,2026-110Y,2026-06-08T20:00:03.000384,15.69574771,.0001487,97.2847,356.2727,102.0765,222.3178,0,U,69146,999,436,-.24763E-1,-.2544239E-1,0
STARLINK-37661,2026-110Z,2026-06-08T20:00:03.000384,15.49085991,.0001752,97.2856,356.1458,66.0099,322.4293,0,U,69147,999,436,.17556E-2,.9622E-3,0
STARLINK-37395,2026-111A,2026-06-08T19:10:35.207904,15.80986596,.0002035,53.1586,193.7005,72.7146,287.4099,0,U,69148,999,293,.17172E-2,.354354E-2,0
STARLINK-37346,2026-111B,2026-06-08T19:09:05.770080,15.80841008,.0000916,53.1585,193.6931,41.1598,318.9494,0,U,69149,999,293,.66053E-3,.131475E-2,0
STARLINK-37332,2026-111C,2026-06-08T20:00:03.000384,15.75122836,.0001244,53.1590,193.5203,78.5482,119.9461,0,U,69150,999,420,-.19261E-1,-.2565919E-1,0
STARLINK-37297,2026-111D,2026-06-08T14:35:39.050304,15.80973340,.0000802,53.1587,194.6414,141.6776,218.4304,0,U,69151,999,290,.1081E-2,.219173E-2,0
STARLINK-37317,2026-111E,2026-06-08T19:05:56.142816,15.80972768,.0000683,53.1582,193.6775,112.0542,248.0553,0,U,69152,999,293,.14931E-2,.306096E-2,0
STARLINK-37374,2026-111F,2026-06-08T20:00:03.000384,15.70170520,.0001179,53.1593,193.5485,74.1350,110.3197,0,U,69153,999,420,-.23492E-1,-.2532324E-1,0
STARLINK-37235,2026-111G,2026-06-08T20:00:03.000384,15.63401666,.0001132,53.1598,193.6816,56.1151,63.0525,0,U,69154,999,420,-.2993E-1,-.2456413E-1,0
STARLINK-37329,2026-111H,2026-06-08T19:06:35.377056,15.80977915,.0001459,53.1588,193.6787,59.4804,300.6363,0,U,69155,999,293,.1479E-2,.303145E-2,0
STARLINK-37345,2026-111J,2026-06-08T19:04:30.203328,15.80974627,.0000994,53.1585,193.6714,92.0473,268.0664,0,U,69156,999,293,.14695E-2,.301084E-2,0
STARLINK-37353,2026-111K,2026-06-08T19:04:11.006976,15.80898928,.000125,53.1585,193.6690,113.1131,247.0023,0,U,69157,999,293,.42652E-3,.8441E-3,0
STARLINK-37363,2026-111L,2026-06-08T19:01:11.840160,15.80952181,.0001399,53.1584,193.6553,95.7643,264.3539,0,U,69158,999,293,.1036E-2,.209571E-2,0
STARLINK-37343,2026-111M,2026-06-08T20:00:03.000384,15.69299071,.0001247,53.1593,193.5419,77.7078,109.4956,0,U,69159,999,420,-.25004E-1,-.2589565E-1,0
STARLINK-37328,2026-111N,2026-06-08T19:01:01.437600,15.80954639,.0001258,53.1588,193.6528,67.5022,292.6134,0,U,69160,999,293,.15126E-2,.309971E-2,0
STARLINK-37311,2026-111P,2026-06-08T20:00:03.000384,15.78097536,.0000599,53.1590,193.4824,116.2826,100.7457,0,U,69161,999,420,-.72715E-3,-.125319E-2,0
STARLINK-36286,2026-111Q,2026-06-08T20:00:03.000384,15.78064793,.0000977,53.1590,193.4721,82.5794,139.3822,0,U,69162,999,420,-.16727E-3,-.29622E-3,0
STARLINK-37196,2026-111R,2026-06-08T14:34:11.216064,15.78103184,.0000999,53.1593,194.6327,97.0157,263.0978,0,U,69163,999,290,.85285E-3,.150367E-2,0
STARLINK-36288,2026-111S,2026-06-08T19:06:37.023840,15.78120333,.0000775,53.1588,193.6768,78.7509,281.3599,0,U,69164,999,293,.12294E-2,.219E-2,0
STARLINK-37445,2026-111T,2026-06-08T20:00:03.000384,15.78059520,.0000867,53.1590,193.4571,100.4468,128.4452,0,U,69165,999,420,-.16889E-3,-.29894E-3,0
