STARLINK-37531          
1 69136U 26110N   26159.83336806 -.00663761  00000+0 -80021-2 0  9998
2 69136  97.2847 356.2222 0001400  88.7822 114.0774 15.62822955  4313
STARLINK-37662          
1 69137U 26110P   26159.83336806 -.02416480  00000+0 -38548-1 0  9991
2 69137  97.2848 356.1899 0001361  78.5748  41.7780 15.56867412  4317
STARLINK-37658          
1 69138U 26110Q   26159.83336806  .00084746  00000+0  15495-2 0  9991
2 69138  97.2853 356.1196 0000991 117.6418 205.4382 15.49070697  4311
STARLINK-37659          
1 69139U 26110R   26159.83336806  .00091307  00000+0  16641-2 0  9997
2 69139  97.2854 356.1012 0001242  92.9491 187.1845 15.49137453  4310
STARLINK-37653          
1 69140U 26110S   26159.83336806  .00085997  00000+0  15683-2 0  9992
2 69140  97.2857 356.0965 0001088 101.4628 164.9258 15.49141386  4318
STARLINK-37654          
1 69141U 26110T   26159.83336806 -.02139424  00000+0 -34909-1 0  9993
2 69141  97.2849 356.1936 0001633  61.8423  71.9784 15.55816078  4312
STARLINK-37655          
1 69142U 26110U   26159.83336806 -.00694427  00000+0 -88337-2 0  9996
2 69142  97.2846 356.2169 0001187  85.5068 101.5885 15.61540119  4310
STARLINK-37636          
1 69143U 26110V   26159.83336806 -.02541433  00000+0 -25827-1 0  9991
2 69143  97.2848 356.2636 0001548 107.1042 197.0223 15.68528952  4310
STARLINK-37638          
1 69144U 26110W   26159.83336806 -.02577224  00000+0 -25705-1 0  9994
2 69144  97.2845 356.2674 0001501 102.5035 210.3220 15.69033182  4313
STARLINK-37657          
1 69145U 26110X   26159.83336806 -.02442289  00000+0 -42216-1 0  9993
2 69145  97.2850 356.1967 0001813  83.6144  53.1304 15.54744562  4366
STARLINK-37639          
1 69146U 26110Y   26159.83336806 -.02544239  00000+0 -24763-1 0  9999
2 69146  97.2847 356.2727 0001487 102.0765 222.3178 15.69574771  4368
STARLINK-37661          
1 69147U 26110Z   26159.83336806  .00096220  00000+0  17556-2 0  9991
2 69147  97.2856 356.1458 0001752  66.0099 322.4293 15.49085991  4362
STARLINK-37395          
1 69148U 26111A   26159.79901861  .00354354  00000+0  17172-2 0  9996
2 69148  53.1586 193.7005 0002035  72.7146 287.4099 15.80986596  2930
STARLINK-37346          
1 69149U 26111B   26159.79798345  .00131475  00000+0  66053-3 0  9998
2 69149  53.1585 193.6931 0000916  41.1598 318.9494 15.80841008  2931
STARLINK-37332          
1 69150U 26111C   26159.83336806 -.02565919  00000+0 -19261-1 0  9990
2 69150  53.1590 193.5203 0001244  78.5482 119.9461 15.75122836  4201
STARLINK-37297          
1 69151U 26111D   26159.60809086  .00219173  00000+0  10810-2 0  9997
2 69151  53.1587 194.6414 0000802 141.6776 218.4304 15.80973340  2907
STARLINK-37317          
1 69152U 26111E   26159.79578869  .00306096  00000+0  14931-2 0  9999
2 69152  53.1582 193.6775 0000683 112.0542 248.0553 15.80972768  2933
STARLINK-37374          
1 69153U 26111F   26159.83336806 -.02532324  00000+0 -23492-1 0  9998
2 69153  53.1593 193.5485 0001179  74.1350 110.3197 15.70170520  4201
STARLINK-37235          
1 69154U 26111G   26159.83336806 -.02456413  00000+0 -29930-1 0  9996
2 69154  53.1598 193.6816 0001132  56.1151  63.0525 15.63401666  4203
STARLINK-37329          
1 69155U 26111H   26159.79624279  .00303145  00000+0  14790-2 0  9994
2 69155  53.1588 193.6787 0001459  59.4804 300.6363 15.80977915  2935
STARLINK-37345          
1 69156U 26111J   26159.79479402  .00301084  00000+0  14695-2 0  9995
2 69156  53.1585 193.6714 0000994  92.0473 268.0664 15.80974627  2939
STARLINK-37353          
1 69157U 26111K   26159.79457184  .00084410  00000+0  42652-3 0  9995
2 69157  53.1585 193.6690 0001250 113.1131 247.0023 15.80898928  2930
STARLINK-37363          
1 69158U 26111L   26159.79249815  .00209571  00000+0  10360-2 0  9993
2 69158  53.1584 193.6553 0001399  95.7643 264.3539 15.80952181  2931
STARLINK-37343          
1 69159U 26111M   26159.83336806 -.02589565  00000+0 -25004-1 0  9994
2 69159  53.1593 193.5419 0001247  77.7078 109.4956 15.69299071  4209
STARLINK-37328          
1 69160U 26111N   26159.79237775  .00309971  00000+0  15126-2 0  9998
2 69160  53.1588 193.6528 0001258  67.5022 292.6134 15.80954639  2937
STARLINK-37311          
1 69161U 26111P   26159.83336806 -.00125319  00000+0 -72715-3 0  9991
2 69161  53.1590 193.4824 0000599 116.2826 100.7457 15.78097536  4209
STARLINK-36286          
1 69162U 26111Q   26159.83336806 -.00029622  00000+0 -16727-3 0  9993
2 69162  53.1590 193.4721 0000977  82.5794 139.3822 15.78064793  4208
STARLINK-37196          
1 69163U 26111R   26159.60707426  .00150367  00000+0  85285-3 0  9993
2 69163  53.1593 194.6327 0000999  97.0157 263.0978 15.78103184  2905
STARLINK-36288          
1 69164U 26111S   26159.79626185  .00219000  00000+0  12294-2 0  9995
2 69164  53.1588 193.6768 0000775  78.7509 281.3599 15.78120333  2937
STARLINK-37445          
1 69165U 26111T   26159.83336806 -.00029894  00000+0 -16889-3 0  9996
2 69165  53.1590 193.4571 0000867 100.4468 128.4452 15.78059520  4200
